NORAD_CAT_ID,OBJECT_NAME,OBJECT_TYPE,EPOCH,MEAN_MOTION,ECCENTRICITY,INCLINATION,RA_OF_ASC_NODE,ARG_OF_PERICENTER,MEAN_ANOMALY,BSTAR,MEAN_MOTION_DOT,MEAN_MOTION_DDOT,TLE_LINE0,TLE_LINE1,TLE_LINE2,SEMIMAJOR_AXIS,PERIOD,APOGEE,PERIGEE,DECAYED
56787.0,STARLINK-6326,PAYLOAD,2024-02-18 04:12:31,14.98790634,0.0002436,69.9992,56.7714,248.3989,111.691,0.0043246,0.00052518,0.0,0 STARLINK-6326,1 56787U 23078W   24049.17536785  .00052518  00000-0  43246-2 0  9996,2 56787  69.9992  56.7714 0002436 248.3989 111.6910 14.98790634 41013,6948.769,96.077,572.327,568.941,0.0
56787.0,STARLINK-6326,PAYLOAD,2024-02-18 10:36:55,14.98821816,0.000278,69.999,56.0973,266.7314,93.3527,0.0042861,0.00052089,0.0,0 STARLINK-6326,1 56787U 23078W   24049.44230932  .00052089  00000-0  42861-2 0  9996,2 56787  69.9990  56.0973 0002780 266.7314  93.3527 14.98821816 41050,6948.672,96.075,572.469,568.606,0.0
56787.0,STARLINK-6326,PAYLOAD,2024-02-18 17:01:19,14.98844183,0.0002806,69.9992,55.4231,268.2795,91.8043,0.0041395,0.00050321,0.0,0 STARLINK-6326,1 56787U 23078W   24049.70925168  .00050321  00000-0  41395-2 0  9995,2 56787  69.9992  55.4231 0002806 268.2795  91.8043 14.98844183 40834,6948.603,96.074,572.418,568.518,0.0
56787.0,STARLINK-6326,PAYLOAD,2024-02-19 04:13:59,14.98916339,0.0002453,69.999,54.2446,262.8367,97.2513,0.0032868,0.00039951,0.0,0 STARLINK-6326,1 56787U 23078W   24050.17638623  .00039951  00000-0  32868-2 0  9996,2 56787  69.9990  54.2446 0002453 262.8367  97.2513 14.98916339 41162,6948.38,96.069,571.95,568.541,0.0
56787.0,STARLINK-6326,PAYLOAD,2024-02-19 09:02:15,14.98933813,0.0002633,69.9989,53.7396,265.3901,94.6958,0.0032388,0.00039381,0.0,0 STARLINK-6326,1 56787U 23078W   24050.37657388  .00039381  00000-0  32388-2 0  9991,2 56787  69.9989  53.7396 0002633 265.3901  94.6958 14.98933813 41193,6948.326,96.068,572.021,568.362,0.0
56787.0,STARLINK-6326,PAYLOAD,2024-02-19 17:02:42,14.98982408,0.0002635,69.999,52.8973,266.7686,93.3172,0.0024825,0.00030161,0.0,0 STARLINK-6326,1 56787U 23078W   24050.71021628  .00030161  00000-0  24825-2 0  9995,2 56787  69.9990  52.8973 0002635 266.7686  93.3172 14.98982408 41247,6948.176,96.065,571.872,568.21,0.0
56787.0,STARLINK-6326,PAYLOAD,2024-02-20 04:15:16,14.9913242,0.0002701,69.9991,51.7189,265.6288,94.4563,3.1534e-06,-5.5e-07,0.0,0 STARLINK-6326,1 56787U 23078W   24051.17726876 -.00000055  00000-0  31534-5 0  9991,2 56787  69.9991  51.7189 0002701 265.6288  94.4563 14.99132420 41311,6947.713,96.056,571.454,567.701,0.0
56787.0,STARLINK-6326,PAYLOAD,2024-02-20 14:00:01,14.99157572,0.0002786,70.0006,50.6934,273.5343,117.4811,-0.0034278,-0.00041633,0.0,0 STARLINK-6326,1 56787U 23078W   24051.58334491 -.00041633  00000-0 -34278-2 0  9997,2 56787  70.0006  50.6934 0002786 273.5343 117.4811 14.99157572  5799,6947.635,96.054,571.435,567.564,0.0
56787.0,STARLINK-6326,PAYLOAD,2024-02-21 00:00:00,14.99146369,0.0002776,70.001,49.6414,266.2905,212.7887,0.0012914,0.0001568,0.0,0 STARLINK-6326,1 56787U 23078W   24052.00001157  .00015680  00000-0  12914-2 0  9999,2 56787  70.0010  49.6414 0002776 266.2905 212.7887 14.99146369  5656,6947.669,96.055,571.463,567.606,0.0
56787.0,STARLINK-6326,PAYLOAD,2024-02-21 04:16:29,14.99139495,0.0002705,69.9995,49.1924,267.5026,92.5824,3.5648e-05,3.41e-06,0.0,0 STARLINK-6326,1 56787U 23078W   24052.17812444  .00000341  00000-0  35648-4 0  9995,2 56787  69.9995  49.1924 0002705 267.5026  92.5824 14.99139495 41462,6947.691,96.055,571.435,567.676,0.0
56787.0,STARLINK-6326,PAYLOAD,2024-02-21 09:04:44,14.99141944,0.0002647,69.9995,48.6871,264.9128,95.1729,4.016e-05,3.96e-06,0.0,0 STARLINK-6326,1 56787U 23078W   24052.37829449  .00000396  00000-0  40160-4 0  9995,2 56787  69.9995  48.6871 0002647 264.9128  95.1729 14.99141944 41236,6947.683,96.055,571.387,567.709,0.0
56787.0,STARLINK-6326,PAYLOAD,2024-02-21 17:05:09,14.99140753,0.0002742,69.9994,47.8431,270.7885,89.296,-1.7068e-06,-1.14e-06,0.0,0 STARLINK-6326,1 56787U 23078W   24052.71191573 -.00000114  00000-0 -17068-5 0  9995,2 56787  69.9994  47.8431 0002742 270.7885  89.2960 14.99140753 41282,6947.687,96.055,571.457,567.647,0.0
56787.0,STARLINK-6326,PAYLOAD,2024-02-22 04:17:44,14.99129661,0.000293,69.9994,46.664,270.0813,90.0011,0.00010026,1.128e-05,0.0,0 STARLINK-6326,1 56787U 23078W   24053.17898844  .00001128  00000-0  10026-3 0  9990,2 56787  69.9994  46.6640 0002930 270.0813  90.0011 14.99129661 41613,6947.721,96.056,571.622,567.55,0.0
56787.0,STARLINK-6326,PAYLOAD,2024-02-22 09:05:59,14.99137187,0.0002511,69.9995,46.1588,263.1194,96.968,2.5551e-05,2.18e-06,0.0,0 STARLINK-6326,1 56787U 23078W   24053.37915812  .00000218  00000-0  25551-4 0  9996,2 56787  69.9995  46.1588 0002511 263.1194  96.9680 14.99137187 41383,6947.698,96.055,571.307,567.818,0.0
56787.0,STARLINK-6326,PAYLOAD,2024-02-22 17:06:23,14.99153837,0.0002827,69.9999,45.3174,268.3544,91.7292,-0.00026951,-3.377e-05,0.0,0 STARLINK-6326,1 56787U 23078W   24053.71277396 -.00003377  00000-0 -26951-3 0  9997,2 56787  69.9999  45.3174 0002827 268.3544  91.7292 14.99153837 41691,6947.646,96.054,571.476,567.547,0.0
56787.0,STARLINK-6326,PAYLOAD,2024-02-23 04:18:58,14.9914009,0.0002764,69.9997,44.1383,271.66,88.4243,1.7645e-06,-7.2e-07,0.0,0 STARLINK-6326,1 56787U 23078W   24054.17984467 -.00000072  00000-0  17645-5 0  9992,2 56787  69.9997  44.1383 0002764 271.6600  88.4243 14.99140090 41762,6947.689,96.055,571.474,567.634,0.0
56787.0,STARLINK-6326,PAYLOAD,2024-02-23 09:07:13,14.99142762,0.0002708,69.9997,43.6326,269.939,90.146,2.5551e-05,2.18e-06,0.0,0 STARLINK-6326,1 56787U 23078W   24054.38001383  .00000218  00000-0  25551-4 0  9997,2 56787  69.9997  43.6326 0002708 269.9390  90.1460 14.99142762 41531,6947.681,96.055,571.427,567.664,0.0
56787.0,STARLINK-6326,PAYLOAD,2024-02-23 17:07:38,14.99142366,0.0002742,69.9998,42.7905,271.1141,88.9704,-2.1238e-05,-3.52e-06,0.0,0 STARLINK-6326,1 56787U 23078W   24054.71363455 -.00000352  00000-0 -21238-4 0  9994,2 56787  69.9998  42.7905 0002742 271.1141  88.9704 14.99142366 41583,6947.682,96.055,571.452,567.642,0.0
56787.0,STARLINK-6326,PAYLOAD,2024-02-24 09:08:27,14.99141091,0.0002691,70.0001,41.1059,271.3101,88.775,3.561e-05,3.4e-06,0.0,0 STARLINK-6326,1 56787U 23078W   24055.38087375  .00000340  00000-0  35610-4 0  9996,2 56787  70.0001  41.1059 0002691 271.3101  88.7750 14.99141091 41948,6947.686,96.055,571.42,567.681,0.0
56787.0,STARLINK-6326,PAYLOAD,2024-02-25 09:09:41,14.99144311,0.0002609,70.0004,38.5794,271.1477,88.9384,4.0686e-05,4.02e-06,0.0,0 STARLINK-6326,1 56787U 23078W   24056.38173024  .00000402  00000-0  40686-4 0  9992,2 56787  70.0004  38.5794 0002609 271.1477  88.9384 14.99144311 42090,6947.676,96.055,571.353,567.728,0.0
56787.0,STARLINK-6326,PAYLOAD,2024-02-25 15:34:01,14.99141702,0.0002588,70.0007,37.9056,271.632,88.4543,1.9793e-05,1.48e-06,0.0,0 STARLINK-6326,1 56787U 23078W   24056.64862769  .00000148  00000-0  19793-4 0  9994,2 56787  70.0007  37.9056 0002588 271.6320  88.4543 14.99141702 41873,6947.684,96.055,571.347,567.751,0.0
56787.0,STARLINK-6326,PAYLOAD,2024-02-26 04:22:41,14.99137882,0.0002727,70.0005,36.5585,268.7885,91.2962,2.1224e-05,1.65e-06,0.0,0 STARLINK-6326,1 56787U 23078W   24057.18242081  .00000165  00000-0  21224-4 0  9994,2 56787  70.0005  36.5585 0002727 268.7885  91.2962 14.99137882 42211,6947.696,96.055,571.455,567.666,0.0
56787.0,STARLINK-6326,PAYLOAD,2024-02-26 07:34:51,14.99136013,0.0002661,70.0005,36.2216,267.6207,92.4648,-4.8349e-05,-6.83e-06,0.0,0 STARLINK-6326,1 56787U 23078W   24057.31587216 -.00000683  00000-0 -48349-4 0  9995,2 56787  70.0005  36.2216 0002661 267.6207  92.4648 14.99136013 41973,6947.701,96.055,571.415,567.718,0.0
56787.0,STARLINK-6326,PAYLOAD,2024-02-27 07:36:05,14.99140022,0.0002663,70.0006,33.6949,265.9068,94.1787,-3.2841e-05,-4.94e-06,0.0,0 STARLINK-6326,1 56787U 23078W   24058.31673041 -.00000494  00000-0 -32841-4 0  9998,2 56787  70.0006  33.6949 0002663 265.9068  94.1787 14.99140022 42380,6947.689,96.055,571.404,567.704,0.0
56787.0,STARLINK-6326,PAYLOAD,2024-02-27 15:36:30,14.99132488,0.0002733,70.0006,32.8525,260.5407,99.5443,0.00013035,1.495e-05,0.0,0 STARLINK-6326,1 56787U 23078W   24058.65035061  .00001495  00000-0  13035-3 0  9992,2 56787  70.0006  32.8525 0002733 260.5407  99.5443 14.99132488 42179,6947.712,96.056,571.476,567.679,0.0
56787.0,STARLINK-6326,PAYLOAD,2024-02-28 07:37:19,14.99139391,0.0002702,70.0005,31.1685,268.8638,91.2212,6.683e-05,7.21e-06,0.0,0 STARLINK-6326,1 56787U 23078W   24059.31758748  .00000721  00000-0  66830-4 0  9993,2 56787  70.0005  31.1685 0002702 268.8638  91.2212 14.99139391 42533,6947.691,96.055,571.433,567.679,0.0
56787.0,STARLINK-6326,PAYLOAD,2024-02-28 22:02:04,14.99133871,0.0002713,70.0002,29.6516,269.1132,90.9716,-2.3059e-05,-3.75e-06,0.0,0 STARLINK-6326,1 56787U 23078W   24059.91811056 -.00000375  00000-0 -23059-4 0  9994,2 56787  70.0002  29.6516 0002713 269.1132  90.9716 14.99133871 42363,6947.708,96.055,571.458,567.688,0.0
56787.0,STARLINK-6326,PAYLOAD,2024-02-29 02:50:19,14.99134703,0.0002725,70.0004,29.146,268.6123,91.4725,-1.4298e-05,-2.68e-06,0.0,0 STARLINK-6326,1 56787U 23078W   24060.11828211 -.00000268  00000-0 -14298-4 0  9995,2 56787  70.0004  29.1460 0002725 268.6123  91.4725 14.99134703 42658,6947.706,96.055,571.464,567.677,0.0
56787.0,STARLINK-6326,PAYLOAD,2024-02-29 07:38:34,14.99135324,0.0002726,70.0005,28.6407,268.7544,91.3304,-7.2842e-06,-1.82e-06,0.0,0 STARLINK-6326,1 56787U 23078W   24060.31845398 -.00000182  00000-0 -72842-5 0  9997,2 56787  70.0005  28.6407 0002726 268.7544  91.3304 14.99135324 42420,6947.704,96.055,571.463,567.675,0.0
56787.0,STARLINK-6326,PAYLOAD,2024-02-29 22:03:18,14.99139292,0.0002727,70.0005,27.1245,268.5938,91.4909,7.5129e-06,-2e-08,0.0,0 STARLINK-6326,1 56787U 23078W   24060.91896720 -.00000002  00000-0  75129-5 0  9999,2 56787  70.0005  27.1245 0002727 268.5938  91.4909 14.99139292 42510,6947.691,96.055,571.451,567.662,0.0
